{"type": "FeatureCollection", "properties": {"note": "synthetic sample grid \u2014 replace with LION/MapPLUTO-derived segments"}, "features": [{"type": "Feature", "geometry": {"type": "LineString", "coordinates": [[-74.002, 40.728], [-74.0008, 40.728]]}, "properties": {"segment_id": 0, "length_m": 101.2, "green": 0.18, "water": 0.075, "sunlight": 0.897, "open_sky": 0.547, "quiet": 0.059, "vibrant": 0.387, "rest": 0.673, "culture": 0.272}}, {"type": "Feature", "geometry": {"type": "LineString", "coordinates": [[-74.002, 40.728], [-74.002, 40.7292]]}, "properties": {"segment_id": 1, "length_m": 133.2, "green": 0.589, "water": 0.028, "sunlight": 0.381, "open_sky": 0.297, "quiet": 0.377, "vibrant": 0.413, "rest": 0.702, "culture": 0.689}}, {"type": "Feature", "geometry": {"type": "LineString", "coordinates": [[-74.002, 40.7292], [-74.0008, 40.7292]]}, "properties": {"segment_id": 2, "length_m": 101.2, "green": 0.507, "water": 0.329, "sunlight": 0.509, "open_sky": 0.103, "quiet": 0.249, "vibrant": 0.77, "rest": 0.342, "culture": 0.74}}, {"type": "Feature", "geometry": {"type": "LineString", "coordinates": [[-74.002, 40.7292], [-74.002, 40.7304]]}, "properties": {"segment_id": 3, "length_m": 133.2, "green": 0.609, "water": 0.102, "sunlight": 0.598, "open_sky": 0.277, "quiet": 0.429, "vibrant": 0.147, "rest": 0.178, "culture": 0.885}}, {"type": "Feature", "geometry": {"type": "LineString", "coordinates": [[-74.002, 40.7304], [-74.0008, 40.7304]]}, "properties": {"segment_id": 4, "length_m": 101.2, "green": 0.552, "water": 0.203, "sunlight": 0.776, "open_sky": 0.893, "quiet": 0.348, "vibrant": 0.467, "rest": 0.551, "culture": 0.612}}, {"type": "Feature", "geometry": {"type": "LineString", "coordinates": [[-74.002, 40.7304], [-74.002, 40.7316]]}, "properties": {"segment_id": 5, "length_m": 133.2, "green": 0.604, "water": 0.348, "sunlight": 0.485, "open_sky": 0.559, "quiet": 0.236, "vibrant": 0.264, "rest": 0.587, "culture": 0.668}}, {"type": "Feature", "geometry": {"type": "LineString", "coordinates": [[-74.002, 40.7316], [-74.0008, 40.7316]]}, "properties": {"segment_id": 6, "length_m": 101.2, "green": 0.273, "water": 0.499, "sunlight": 0.374, "open_sky": 0.992, "quiet": 0.253, "vibrant": 0.07, "rest": 0.794, "culture": 0.08}}, {"type": "Feature", "geometry": {"type": "LineString", "coordinates": [[-74.002, 40.7316], [-74.002, 40.7328]]}, "properties": {"segment_id": 7, "length_m": 133.2, "green": 0.256, "water": 0.09, "sunlight": 0.026, "open_sky": 0.262, "quiet": 0.558, "vibrant": 0.819, "rest": 0.937, "culture": 0.427}}, {"type": "Feature", "geometry": {"type": "LineString", "coordinates": [[-74.002, 40.7328], [-74.0008, 40.7328]]}, "properties": {"segment_id": 8, "length_m": 101.2, "green": 0.399, "water": 0.262, "sunlight": 0.063, "open_sky": 0.375, "quiet": 0.781, "vibrant": 0.269, "rest": 0.633, "culture": 0.509}}, {"type": "Feature", "geometry": {"type": "LineString", "coordinates": [[-74.002, 40.7328], [-74.002, 40.734]]}, "properties": {"segment_id": 9, "length_m": 133.2, "green": 0.724, "water": 0.213, "sunlight": 0.196, "open_sky": 0.902, "quiet": 0.362, "vibrant": 0.526, "rest": 0.0, "culture": 0.208}}, {"type": "Feature", "geometry": {"type": "LineString", "coordinates": [[-74.002, 40.734], [-74.0008, 40.734]]}, "properties": {"segment_id": 10, "length_m": 101.2, "green": 0.459, "water": 0.689, "sunlight": 0.394, "open_sky": 0.421, "quiet": 0.897, "vibrant": 0.956, "rest": 0.538, "culture": 0.437}}, {"type": "Feature", "geometry": {"type": "LineString", "coordinates": [[-74.002, 40.734], [-74.002, 40.7352]]}, "properties": {"segment_id": 11, "length_m": 133.2, "green": 0.885, "water": 0.349, "sunlight": 0.012, "open_sky": 0.094, "quiet": 0.273, "vibrant": 0.219, "rest": 0.326, "culture": 0.444}}, {"type": "Feature", "geometry": {"type": "LineString", "coordinates": [[-74.002, 40.7352], [-74.0008, 40.7352]]}, "properties": {"segment_id": 12, "length_m": 101.2, "green": 0.752, "water": 0.452, "sunlight": 0.654, "open_sky": 0.679, "quiet": 0.397, "vibrant": 0.787, "rest": 0.071, "culture": 0.513}}, {"type": "Feature", "geometry": {"type": "LineString", "coordinates": [[-74.0008, 40.728], [-73.9996, 40.728]]}, "properties": {"segment_id": 13, "length_m": 101.2, "green": 0.439, "water": 0.595, "sunlight": 0.588, "open_sky": 0.492, "quiet": 0.314, "vibrant": 0.694, "rest": 0.941, "culture": 0.795}}, {"type": "Feature", "geometry": {"type": "LineString", "coordinates": [[-74.0008, 40.728], [-74.0008, 40.7292]]}, "properties": {"segment_id": 14, "length_m": 133.2, "green": 0.431, "water": 0.167, "sunlight": 0.371, "open_sky": 0.592, "quiet": 0.707, "vibrant": 0.366, "rest": 0.484, "culture": 0.459}}, {"type": "Feature", "geometry": {"type": "LineString", "coordinates": [[-74.0008, 40.7292], [-73.9996, 40.7292]]}, "properties": {"segment_id": 15, "length_m": 101.2, "green": 0.527, "water": 0.781, "sunlight": 0.032, "open_sky": 0.548, "quiet": 0.274, "vibrant": 0.081, "rest": 0.925, "culture": 0.399}}, {"type": "Feature", "geometry": {"type": "LineString", "coordinates": [[-74.0008, 40.7292], [-74.0008, 40.7304]]}, "properties": {"segment_id": 16, "length_m": 133.2, "green": 0.698, "water": 0.901, "sunlight": 0.155, "open_sky": 0.766, "quiet": 0.652, "vibrant": 0.121, "rest": 0.419, "culture": 0.514}}, {"type": "Feature", "geometry": {"type": "LineString", "coordinates": [[-74.0008, 40.7304], [-73.9996, 40.7304]]}, "properties": {"segment_id": 17, "length_m": 101.2, "green": 0.503, "water": 0.628, "sunlight": 0.811, "open_sky": 0.877, "quiet": 0.034, "vibrant": 0.188, "rest": 0.609, "culture": 0.859}}, {"type": "Feature", "geometry": {"type": "LineString", "coordinates": [[-74.0008, 40.7304], [-74.0008, 40.7316]]}, "properties": {"segment_id": 18, "length_m": 133.2, "green": 0.518, "water": 0.937, "sunlight": 0.711, "open_sky": 0.753, "quiet": 0.927, "vibrant": 0.041, "rest": 0.581, "culture": 0.994}}, {"type": "Feature", "geometry": {"type": "LineString", "coordinates": [[-74.0008, 40.7316], [-73.9996, 40.7316]]}, "properties": {"segment_id": 19, "length_m": 101.2, "green": 1.0, "water": 0.854, "sunlight": 0.083, "open_sky": 0.469, "quiet": 0.242, "vibrant": 0.849, "rest": 0.869, "culture": 0.715}}, {"type": "Feature", "geometry": {"type": "LineString", "coordinates": [[-74.0008, 40.7316], [-74.0008, 40.7328]]}, "properties": {"segment_id": 20, "length_m": 133.2, "green": 0.334, "water": 0.911, "sunlight": 0.84, "open_sky": 0.909, "quiet": 0.736, "vibrant": 0.134, "rest": 0.671, "culture": 0.006}}, {"type": "Feature", "geometry": {"type": "LineString", "coordinates": [[-74.0008, 40.7328], [-73.9996, 40.7328]]}, "properties": {"segment_id": 21, "length_m": 101.2, "green": 0.744, "water": 0.557, "sunlight": 0.814, "open_sky": 0.418, "quiet": 0.717, "vibrant": 0.688, "rest": 0.683, "culture": 0.849}}, {"type": "Feature", "geometry": {"type": "LineString", "coordinates": [[-74.0008, 40.7328], [-74.0008, 40.734]]}, "properties": {"segment_id": 22, "length_m": 133.2, "green": 0.254, "water": 0.457, "sunlight": 0.751, "open_sky": 0.2, "quiet": 0.869, "vibrant": 0.212, "rest": 0.873, "culture": 0.887}}, {"type": "Feature", "geometry": {"type": "LineString", "coordinates": [[-74.0008, 40.734], [-73.9996, 40.734]]}, "properties": {"segment_id": 23, "length_m": 101.2, "green": 0.389, "water": 0.864, "sunlight": 0.241, "open_sky": 0.118, "quiet": 0.279, "vibrant": 0.694, "rest": 0.473, "culture": 0.513}}, {"type": "Feature", "geometry": {"type": "LineString", "coordinates": [[-74.0008, 40.734], [-74.0008, 40.7352]]}, "properties": {"segment_id": 24, "length_m": 133.2, "green": 0.305, "water": 0.427, "sunlight": 0.837, "open_sky": 0.454, "quiet": 0.999, "vibrant": 0.117, "rest": 0.273, "culture": 0.725}}, {"type": "Feature", "geometry": {"type": "LineString", "coordinates": [[-74.0008, 40.7352], [-73.9996, 40.7352]]}, "properties": {"segment_id": 25, "length_m": 101.2, "green": 0.066, "water": 0.775, "sunlight": 0.725, "open_sky": 0.918, "quiet": 0.216, "vibrant": 0.729, "rest": 0.838, "culture": 0.576}}, {"type": "Feature", "geometry": {"type": "LineString", "coordinates": [[-73.9996, 40.728], [-73.9984, 40.728]]}, "properties": {"segment_id": 26, "length_m": 101.2, "green": 0.42, "water": 0.499, "sunlight": 0.563, "open_sky": 0.465, "quiet": 0.112, "vibrant": 0.11, "rest": 0.589, "culture": 0.695}}, {"type": "Feature", "geometry": {"type": "LineString", "coordinates": [[-73.9996, 40.728], [-73.9996, 40.7292]]}, "properties": {"segment_id": 27, "length_m": 133.2, "green": 0.599, "water": 0.76, "sunlight": 0.939, "open_sky": 0.777, "quiet": 0.786, "vibrant": 0.379, "rest": 0.473, "culture": 0.766}}, {"type": "Feature", "geometry": {"type": "LineString", "coordinates": [[-73.9996, 40.7292], [-73.9984, 40.7292]]}, "properties": {"segment_id": 28, "length_m": 101.2, "green": 0.633, "water": 0.734, "sunlight": 0.798, "open_sky": 0.626, "quiet": 0.643, "vibrant": 0.516, "rest": 0.773, "culture": 0.515}}, {"type": "Feature", "geometry": {"type": "LineString", "coordinates": [[-73.9996, 40.7292], [-73.9996, 40.7304]]}, "properties": {"segment_id": 29, "length_m": 133.2, "green": 0.512, "water": 0.104, "sunlight": 0.377, "open_sky": 0.631, "quiet": 0.496, "vibrant": 0.481, "rest": 0.161, "culture": 0.229}}, {"type": "Feature", "geometry": {"type": "LineString", "coordinates": [[-73.9996, 40.7304], [-73.9984, 40.7304]]}, "properties": {"segment_id": 30, "length_m": 101.2, "green": 0.255, "water": 0.662, "sunlight": 0.466, "open_sky": 0.029, "quiet": 0.544, "vibrant": 0.976, "rest": 0.264, "culture": 0.129}}, {"type": "Feature", "geometry": {"type": "LineString", "coordinates": [[-73.9996, 40.7304], [-73.9996, 40.7316]]}, "properties": {"segment_id": 31, "length_m": 133.2, "green": 0.008, "water": 0.524, "sunlight": 0.657, "open_sky": 0.147, "quiet": 0.279, "vibrant": 0.16, "rest": 0.594, "culture": 0.184}}, {"type": "Feature", "geometry": {"type": "LineString", "coordinates": [[-73.9996, 40.7316], [-73.9984, 40.7316]]}, "properties": {"segment_id": 32, "length_m": 101.2, "green": 0.617, "water": 0.996, "sunlight": 0.274, "open_sky": 0.768, "quiet": 0.257, "vibrant": 0.656, "rest": 0.563, "culture": 0.014}}, {"type": "Feature", "geometry": {"type": "LineString", "coordinates": [[-73.9996, 40.7316], [-73.9996, 40.7328]]}, "properties": {"segment_id": 33, "length_m": 133.2, "green": 0.88, "water": 0.444, "sunlight": 0.859, "open_sky": 0.245, "quiet": 0.285, "vibrant": 0.443, "rest": 0.113, "culture": 0.061}}, {"type": "Feature", "geometry": {"type": "LineString", "coordinates": [[-73.9996, 40.7328], [-73.9984, 40.7328]]}, "properties": {"segment_id": 34, "length_m": 101.2, "green": 0.536, "water": 0.368, "sunlight": 0.111, "open_sky": 0.255, "quiet": 0.351, "vibrant": 0.089, "rest": 0.016, "culture": 0.767}}, {"type": "Feature", "geometry": {"type": "LineString", "coordinates": [[-73.9996, 40.7328], [-73.9996, 40.734]]}, "properties": {"segment_id": 35, "length_m": 133.2, "green": 0.803, "water": 0.27, "sunlight": 0.367, "open_sky": 0.711, "quiet": 0.306, "vibrant": 0.479, "rest": 0.683, "culture": 0.931}}, {"type": "Feature", "geometry": {"type": "LineString", "coordinates": [[-73.9996, 40.734], [-73.9984, 40.734]]}, "properties": {"segment_id": 36, "length_m": 101.2, "green": 0.285, "water": 0.591, "sunlight": 0.816, "open_sky": 0.121, "quiet": 0.864, "vibrant": 0.619, "rest": 0.251, "culture": 0.921}}, {"type": "Feature", "geometry": {"type": "LineString", "coordinates": [[-73.9996, 40.734], [-73.9996, 40.7352]]}, "properties": {"segment_id": 37, "length_m": 133.2, "green": 0.862, "water": 0.991, "sunlight": 0.78, "open_sky": 0.845, "quiet": 0.381, "vibrant": 0.38, "rest": 0.805, "culture": 0.927}}, {"type": "Feature", "geometry": {"type": "LineString", "coordinates": [[-73.9996, 40.7352], [-73.9984, 40.7352]]}, "properties": {"segment_id": 38, "length_m": 101.2, "green": 0.8, "water": 0.439, "sunlight": 0.729, "open_sky": 0.475, "quiet": 0.837, "vibrant": 0.285, "rest": 0.617, "culture": 0.169}}, {"type": "Feature", "geometry": {"type": "LineString", "coordinates": [[-73.9984, 40.728], [-73.9972, 40.728]]}, "properties": {"segment_id": 39, "length_m": 101.2, "green": 0.237, "water": 0.093, "sunlight": 0.265, "open_sky": 0.908, "quiet": 0.062, "vibrant": 0.937, "rest": 0.458, "culture": 0.255}}, {"type": "Feature", "geometry": {"type": "LineString", "coordinates": [[-73.9984, 40.728], [-73.9984, 40.7292]]}, "properties": {"segment_id": 40, "length_m": 133.2, "green": 0.648, "water": 0.656, "sunlight": 0.353, "open_sky": 0.368, "quiet": 0.197, "vibrant": 0.3, "rest": 0.909, "culture": 0.878}}, {"type": "Feature", "geometry": {"type": "LineString", "coordinates": [[-73.9984, 40.7292], [-73.9972, 40.7292]]}, "properties": {"segment_id": 41, "length_m": 101.2, "green": 0.215, "water": 0.579, "sunlight": 0.359, "open_sky": 0.638, "quiet": 0.623, "vibrant": 0.766, "rest": 0.247, "culture": 0.181}}, {"type": "Feature", "geometry": {"type": "LineString", "coordinates": [[-73.9984, 40.7292], [-73.9984, 40.7304]]}, "properties": {"segment_id": 42, "length_m": 133.2, "green": 0.179, "water": 0.461, "sunlight": 0.181, "open_sky": 0.118, "quiet": 0.666, "vibrant": 0.181, "rest": 0.527, "culture": 0.405}}, {"type": "Feature", "geometry": {"type": "LineString", "coordinates": [[-73.9984, 40.7304], [-73.9972, 40.7304]]}, "properties": {"segment_id": 43, "length_m": 101.2, "green": 0.04, "water": 0.297, "sunlight": 0.574, "open_sky": 0.853, "quiet": 0.24, "vibrant": 0.383, "rest": 0.189, "culture": 0.24}}, {"type": "Feature", "geometry": {"type": "LineString", "coordinates": [[-73.9984, 40.7304], [-73.9984, 40.7316]]}, "properties": {"segment_id": 44, "length_m": 133.2, "green": 0.626, "water": 0.93, "sunlight": 0.415, "open_sky": 0.387, "quiet": 0.736, "vibrant": 0.634, "rest": 0.028, "culture": 0.909}}, {"type": "Feature", "geometry": {"type": "LineString", "coordinates": [[-73.9984, 40.7316], [-73.9972, 40.7316]]}, "properties": {"segment_id": 45, "length_m": 101.2, "green": 0.076, "water": 0.684, "sunlight": 0.218, "open_sky": 0.567, "quiet": 0.245, "vibrant": 0.995, "rest": 0.157, "culture": 0.415}}, {"type": "Feature", "geometry": {"type": "LineString", "coordinates": [[-73.9984, 40.7316], [-73.9984, 40.7328]]}, "properties": {"segment_id": 46, "length_m": 133.2, "green": 0.154, "water": 0.662, "sunlight": 0.812, "open_sky": 0.58, "quiet": 0.138, "vibrant": 0.459, "rest": 0.904, "culture": 0.043}}, {"type": "Feature", "geometry": {"type": "LineString", "coordinates": [[-73.9984, 40.7328], [-73.9972, 40.7328]]}, "properties": {"segment_id": 47, "length_m": 101.2, "green": 0.563, "water": 0.998, "sunlight": 0.751, "open_sky": 0.108, "quiet": 0.194, "vibrant": 0.902, "rest": 0.68, "culture": 0.414}}, {"type": "Feature", "geometry": {"type": "LineString", "coordinates": [[-73.9984, 40.7328], [-73.9984, 40.734]]}, "properties": {"segment_id": 48, "length_m": 133.2, "green": 0.105, "water": 0.516, "sunlight": 0.778, "open_sky": 0.829, "quiet": 0.51, "vibrant": 0.65, "rest": 0.811, "culture": 0.961}}, {"type": "Feature", "geometry": {"type": "LineString", "coordinates": [[-73.9984, 40.734], [-73.9972, 40.734]]}, "properties": {"segment_id": 49, "length_m": 101.2, "green": 0.284, "water": 0.519, "sunlight": 0.126, "open_sky": 0.374, "quiet": 0.612, "vibrant": 0.217, "rest": 0.711, "culture": 0.778}}, {"type": "Feature", "geometry": {"type": "LineString", "coordinates": [[-73.9984, 40.734], [-73.9984, 40.7352]]}, "properties": {"segment_id": 50, "length_m": 133.2, "green": 0.803, "water": 0.546, "sunlight": 0.123, "open_sky": 0.987, "quiet": 0.964, "vibrant": 0.062, "rest": 0.993, "culture": 0.705}}, {"type": "Feature", "geometry": {"type": "LineString", "coordinates": [[-73.9984, 40.7352], [-73.9972, 40.7352]]}, "properties": {"segment_id": 51, "length_m": 101.2, "green": 0.145, "water": 0.591, "sunlight": 0.22, "open_sky": 0.568, "quiet": 0.807, "vibrant": 0.373, "rest": 0.067, "culture": 0.162}}, {"type": "Feature", "geometry": {"type": "LineString", "coordinates": [[-73.9972, 40.728], [-73.996, 40.728]]}, "properties": {"segment_id": 52, "length_m": 101.2, "green": 0.872, "water": 0.8, "sunlight": 0.741, "open_sky": 0.876, "quiet": 0.269, "vibrant": 0.681, "rest": 0.209, "culture": 0.713}}, {"type": "Feature", "geometry": {"type": "LineString", "coordinates": [[-73.9972, 40.728], [-73.9972, 40.7292]]}, "properties": {"segment_id": 53, "length_m": 133.2, "green": 0.984, "water": 0.149, "sunlight": 0.775, "open_sky": 0.19, "quiet": 0.316, "vibrant": 0.064, "rest": 0.491, "culture": 0.38}}, {"type": "Feature", "geometry": {"type": "LineString", "coordinates": [[-73.9972, 40.7292], [-73.996, 40.7292]]}, "properties": {"segment_id": 54, "length_m": 101.2, "green": 0.442, "water": 0.224, "sunlight": 0.866, "open_sky": 0.332, "quiet": 0.831, "vibrant": 0.506, "rest": 0.995, "culture": 0.868}}, {"type": "Feature", "geometry": {"type": "LineString", "coordinates": [[-73.9972, 40.7292], [-73.9972, 40.7304]]}, "properties": {"segment_id": 55, "length_m": 133.2, "green": 0.221, "water": 0.199, "sunlight": 0.042, "open_sky": 0.025, "quiet": 0.333, "vibrant": 0.464, "rest": 0.044, "culture": 0.18}}, {"type": "Feature", "geometry": {"type": "LineString", "coordinates": [[-73.9972, 40.7304], [-73.996, 40.7304]]}, "properties": {"segment_id": 56, "length_m": 101.2, "green": 0.582, "water": 0.726, "sunlight": 0.02, "open_sky": 0.312, "quiet": 0.527, "vibrant": 0.178, "rest": 0.87, "culture": 0.835}}, {"type": "Feature", "geometry": {"type": "LineString", "coordinates": [[-73.9972, 40.7304], [-73.9972, 40.7316]]}, "properties": {"segment_id": 57, "length_m": 133.2, "green": 0.074, "water": 0.634, "sunlight": 0.141, "open_sky": 0.526, "quiet": 0.319, "vibrant": 0.685, "rest": 0.728, "culture": 0.89}}, {"type": "Feature", "geometry": {"type": "LineString", "coordinates": [[-73.9972, 40.7316], [-73.996, 40.7316]]}, "properties": {"segment_id": 58, "length_m": 101.2, "green": 0.89, "water": 0.302, "sunlight": 0.27, "open_sky": 0.78, "quiet": 0.87, "vibrant": 0.183, "rest": 0.162, "culture": 0.22}}, {"type": "Feature", "geometry": {"type": "LineString", "coordinates": [[-73.9972, 40.7316], [-73.9972, 40.7328]]}, "properties": {"segment_id": 59, "length_m": 133.2, "green": 0.416, "water": 0.934, "sunlight": 0.385, "open_sky": 0.528, "quiet": 0.266, "vibrant": 0.462, "rest": 0.293, "culture": 0.161}}, {"type": "Feature", "geometry": {"type": "LineString", "coordinates": [[-73.9972, 40.7328], [-73.996, 40.7328]]}, "properties": {"segment_id": 60, "length_m": 101.2, "green": 0.662, "water": 0.578, "sunlight": 0.23, "open_sky": 0.44, "quiet": 0.514, "vibrant": 0.343, "rest": 0.024, "culture": 0.67}}, {"type": "Feature", "geometry": {"type": "LineString", "coordinates": [[-73.9972, 40.7328], [-73.9972, 40.734]]}, "properties": {"segment_id": 61, "length_m": 133.2, "green": 0.765, "water": 0.953, "sunlight": 0.098, "open_sky": 0.112, "quiet": 0.798, "vibrant": 0.681, "rest": 0.5, "culture": 0.094}}, {"type": "Feature", "geometry": {"type": "LineString", "coordinates": [[-73.9972, 40.734], [-73.996, 40.734]]}, "properties": {"segment_id": 62, "length_m": 101.2, "green": 0.517, "water": 0.249, "sunlight": 0.117, "open_sky": 0.447, "quiet": 0.136, "vibrant": 0.122, "rest": 0.332, "culture": 0.728}}, {"type": "Feature", "geometry": {"type": "LineString", "coordinates": [[-73.9972, 40.734], [-73.9972, 40.7352]]}, "properties": {"segment_id": 63, "length_m": 133.2, "green": 0.187, "water": 0.889, "sunlight": 0.419, "open_sky": 0.567, "quiet": 0.712, "vibrant": 0.336, "rest": 0.792, "culture": 0.838}}, {"type": "Feature", "geometry": {"type": "LineString", "coordinates": [[-73.9972, 40.7352], [-73.996, 40.7352]]}, "properties": {"segment_id": 64, "length_m": 101.2, "green": 0.401, "water": 0.683, "sunlight": 0.027, "open_sky": 0.341, "quiet": 0.299, "vibrant": 0.071, "rest": 0.342, "culture": 0.166}}, {"type": "Feature", "geometry": {"type": "LineString", "coordinates": [[-73.996, 40.728], [-73.9948, 40.728]]}, "properties": {"segment_id": 65, "length_m": 101.2, "green": 0.693, "water": 0.793, "sunlight": 0.902, "open_sky": 0.628, "quiet": 0.083, "vibrant": 0.312, "rest": 0.562, "culture": 0.485}}, {"type": "Feature", "geometry": {"type": "LineString", "coordinates": [[-73.996, 40.728], [-73.996, 40.7292]]}, "properties": {"segment_id": 66, "length_m": 133.2, "green": 0.836, "water": 0.927, "sunlight": 0.041, "open_sky": 0.552, "quiet": 0.103, "vibrant": 0.908, "rest": 0.495, "culture": 0.171}}, {"type": "Feature", "geometry": {"type": "LineString", "coordinates": [[-73.996, 40.7292], [-73.9948, 40.7292]]}, "properties": {"segment_id": 67, "length_m": 101.2, "green": 0.555, "water": 0.406, "sunlight": 0.011, "open_sky": 0.836, "quiet": 0.045, "vibrant": 0.093, "rest": 0.768, "culture": 0.951}}, {"type": "Feature", "geometry": {"type": "LineString", "coordinates": [[-73.996, 40.7292], [-73.996, 40.7304]]}, "properties": {"segment_id": 68, "length_m": 133.2, "green": 0.488, "water": 0.073, "sunlight": 0.342, "open_sky": 0.516, "quiet": 0.62, "vibrant": 0.684, "rest": 0.771, "culture": 0.673}}, {"type": "Feature", "geometry": {"type": "LineString", "coordinates": [[-73.996, 40.7304], [-73.9948, 40.7304]]}, "properties": {"segment_id": 69, "length_m": 101.2, "green": 0.35, "water": 0.912, "sunlight": 0.29, "open_sky": 0.163, "quiet": 0.348, "vibrant": 0.955, "rest": 0.641, "culture": 0.567}}, {"type": "Feature", "geometry": {"type": "LineString", "coordinates": [[-73.996, 40.7304], [-73.996, 40.7316]]}, "properties": {"segment_id": 70, "length_m": 133.2, "green": 0.91, "water": 0.08, "sunlight": 0.422, "open_sky": 0.882, "quiet": 0.028, "vibrant": 0.657, "rest": 0.2, "culture": 0.971}}, {"type": "Feature", "geometry": {"type": "LineString", "coordinates": [[-73.996, 40.7316], [-73.9948, 40.7316]]}, "properties": {"segment_id": 71, "length_m": 101.2, "green": 0.904, "water": 0.028, "sunlight": 0.87, "open_sky": 0.153, "quiet": 0.499, "vibrant": 0.397, "rest": 0.682, "culture": 0.045}}, {"type": "Feature", "geometry": {"type": "LineString", "coordinates": [[-73.996, 40.7316], [-73.996, 40.7328]]}, "properties": {"segment_id": 72, "length_m": 133.2, "green": 0.072, "water": 0.902, "sunlight": 0.403, "open_sky": 0.741, "quiet": 0.255, "vibrant": 0.969, "rest": 0.434, "culture": 0.488}}, {"type": "Feature", "geometry": {"type": "LineString", "coordinates": [[-73.996, 40.7328], [-73.9948, 40.7328]]}, "properties": {"segment_id": 73, "length_m": 101.2, "green": 0.121, "water": 0.61, "sunlight": 0.619, "open_sky": 0.205, "quiet": 0.911, "vibrant": 0.421, "rest": 0.49, "culture": 0.559}}, {"type": "Feature", "geometry": {"type": "LineString", "coordinates": [[-73.996, 40.7328], [-73.996, 40.734]]}, "properties": {"segment_id": 74, "length_m": 133.2, "green": 0.293, "water": 0.18, "sunlight": 0.982, "open_sky": 0.401, "quiet": 0.417, "vibrant": 0.118, "rest": 0.72, "culture": 0.885}}, {"type": "Feature", "geometry": {"type": "LineString", "coordinates": [[-73.996, 40.734], [-73.9948, 40.734]]}, "properties": {"segment_id": 75, "length_m": 101.2, "green": 0.831, "water": 0.681, "sunlight": 0.254, "open_sky": 0.615, "quiet": 0.872, "vibrant": 0.852, "rest": 0.809, "culture": 0.674}}, {"type": "Feature", "geometry": {"type": "LineString", "coordinates": [[-73.996, 40.734], [-73.996, 40.7352]]}, "properties": {"segment_id": 76, "length_m": 133.2, "green": 0.372, "water": 0.147, "sunlight": 0.476, "open_sky": 0.734, "quiet": 0.798, "vibrant": 0.13, "rest": 0.069, "culture": 0.507}}, {"type": "Feature", "geometry": {"type": "LineString", "coordinates": [[-73.996, 40.7352], [-73.9948, 40.7352]]}, "properties": {"segment_id": 77, "length_m": 101.2, "green": 1.0, "water": 0.794, "sunlight": 0.19, "open_sky": 0.924, "quiet": 0.515, "vibrant": 0.727, "rest": 0.267, "culture": 0.735}}, {"type": "Feature", "geometry": {"type": "LineString", "coordinates": [[-73.9948, 40.728], [-73.9948, 40.7292]]}, "properties": {"segment_id": 78, "length_m": 133.2, "green": 0.174, "water": 0.321, "sunlight": 0.821, "open_sky": 0.26, "quiet": 0.921, "vibrant": 0.455, "rest": 0.746, "culture": 0.379}}, {"type": "Feature", "geometry": {"type": "LineString", "coordinates": [[-73.9948, 40.7292], [-73.9948, 40.7304]]}, "properties": {"segment_id": 79, "length_m": 133.2, "green": 0.771, "water": 0.171, "sunlight": 0.455, "open_sky": 0.178, "quiet": 0.344, "vibrant": 0.512, "rest": 0.04, "culture": 0.268}}, {"type": "Feature", "geometry": {"type": "LineString", "coordinates": [[-73.9948, 40.7304], [-73.9948, 40.7316]]}, "properties": {"segment_id": 80, "length_m": 133.2, "green": 0.211, "water": 0.092, "sunlight": 0.443, "open_sky": 0.533, "quiet": 0.542, "vibrant": 0.323, "rest": 0.981, "culture": 0.025}}, {"type": "Feature", "geometry": {"type": "LineString", "coordinates": [[-73.9948, 40.7316], [-73.9948, 40.7328]]}, "properties": {"segment_id": 81, "length_m": 133.2, "green": 0.984, "water": 0.68, "sunlight": 0.528, "open_sky": 0.286, "quiet": 0.534, "vibrant": 0.284, "rest": 0.078, "culture": 0.885}}, {"type": "Feature", "geometry": {"type": "LineString", "coordinates": [[-73.9948, 40.7328], [-73.9948, 40.734]]}, "properties": {"segment_id": 82, "length_m": 133.2, "green": 0.999, "water": 0.594, "sunlight": 0.767, "open_sky": 0.821, "quiet": 0.11, "vibrant": 0.009, "rest": 0.63, "culture": 0.896}}, {"type": "Feature", "geometry": {"type": "LineString", "coordinates": [[-73.9948, 40.734], [-73.9948, 40.7352]]}, "properties": {"segment_id": 83, "length_m": 133.2, "green": 0.241, "water": 0.162, "sunlight": 0.834, "open_sky": 0.869, "quiet": 0.47, "vibrant": 0.333, "rest": 0.183, "culture": 0.758}}]}